{"type": "FeatureCollection", "features": [ {"type": "Feature", "properties": {"norad_id": 30811, "name": "FENGYUN 1C DEB", "group": "fengyun-1c-debris", "lat": 13.498555080041235, "lon": 16.906070004917613, "alt_km": 901.8732232126113, "timestamp": "2025-12-04T21:36:16.151721+00:00", "meta": {"OBJECT_NAME": "FENGYUN 1C DEB", "OBJECT_ID": "1999-025AUV", "EPOCH": "2025-12-02T14:52:38.800128", "MEAN_MOTION": 13.6179577, "ECCENTRICITY": 0.02791102, "INCLINATION": 98.7833, "RA_OF_ASC_NODE": 16.9774, "ARG_OF_PERICENTER": 72.6748, "MEAN_ANOMALY": 290.4722, "EPHEMERIS_TYPE": 0, "CLASSIFICATION_TYPE": "U", "NORAD_CAT_ID": 30811, "ELEMENT_SET_NO": 999, "REV_AT_EPOCH": 92729, "BSTAR": 0.0021803922, "MEAN_MOTION_DOT": 2.136e-05, "MEAN_MOTION_DDOT": 0}, "tle": {"line1": "1 30811U 99025AUV 25336.61989352  .00002136  00000+0  21804-2 0  9998", "line2": "2 30811  98.7833  16.9774 0279110  72.6748 290.4722 13.61795770927292"}}, "geometry": {"type": "Point", "coordinates": [16.906070004917613, 13.498555080041235]}}, {"type": "Feature", "properties": {"norad_id": 30814, "name": "FENGYUN 1C DEB", "group": "fengyun-1c-debris", "lat": 6.311762467930887, "lon": 135.56644202845374, "alt_km": 693.000818584469, "timestamp": "2025-12-04T21:36:16.151731+00:00", "meta": {"OBJECT_NAME": "FENGYUN 1C DEB", "OBJECT_ID": "1999-025AUY", "EPOCH": "2025-12-04T14:27:49.878432", "MEAN_MOTION": 14.60076757, "ECCENTRICITY": 0.00307807, "INCLINATION": 99.0814, "RA_OF_ASC_NODE": 314.2271, "ARG_OF_PERICENTER": 259.4085, "MEAN_ANOMALY": 151.4457, "EPHEMERIS_TYPE": 0, "CLASSIFICATION_TYPE": "U", "NORAD_CAT_ID": 30814, "ELEMENT_SET_NO": 999, "REV_AT_EPOCH": 97623, "BSTAR": 0.0071204719, "MEAN_MOTION_DOT": 0.00034569, "MEAN_MOTION_DDOT": 0}, "tle": {"line1": "1 30814U 99025AUY 25338.60266063  .00034569  00000+0  71205-2 0  9994", "line2": "2 30814  99.0814 314.2271 0030780 259.4085 151.4457 14.60076757976237"}}, "geometry": {"type": "Point", "coordinates": [135.56644202845374, 6.311762467930887]}}, {"type": "Feature", "properties": {"norad_id": 30815, "name": "FENGYUN 1C DEB", "group": "fengyun-1c-debris", "lat": -11.201831968329294, "lon": -48.18626257362184, "alt_km": 655.7652575993216, "timestamp": "2025-12-04T21:36:16.151741+00:00", "meta": {"OBJECT_NAME": "FENGYUN 1C DEB", "OBJECT_ID": "1999-025AUZ", "EPOCH": "2025-12-04T09:34:39.235872", "MEAN_MOTION": 14.72887536, "ECCENTRICITY": 0.00022187, "INCLINATION": 99.2994, "RA_OF_ASC_NODE": 133.1002, "ARG_OF_PERICENTER": 275.4558, "MEAN_ANOMALY": 140.1429, "EPHEMERIS_TYPE": 0, "CLASSIFICATION_TYPE": "U", "NORAD_CAT_ID": 30815, "ELEMENT_SET_NO": 999, "REV_AT_EPOCH": 97657, "BSTAR": 0.010016946, "MEAN_MOTION_DOT": 0.00064729, "MEAN_MOTION_DDOT": 0}, "tle": {"line1": "1 30815U 99025AUZ 25338.39906523  .00064729  00000+0  10017-1 0  9997", "line2": "2 30815  99.2994 133.1002 0002218 275.4558 140.1429 14.72887536976576"}}, "geometry": {"type": "Point", "coordinates": [-48.18626257362184, -11.201831968329294]}}, {"type": "Feature", "properties": {"norad_id": 30816, "name": "FENGYUN 1C DEB", "group": "fengyun-1c-debris", "lat": -70.88462916576006, "lon": 76.28243862713354, "alt_km": 873.0116192047235, "timestamp": "2025-12-04T21:36:16.151751+00:00", "meta": {"OBJECT_NAME": "FENGYUN 1C DEB", "OBJECT_ID": "1999-025AVA", "EPOCH": "2025-12-04T03:37:20.758080", "MEAN_MOTION": 14.17922136, "ECCENTRICITY": 0.00530587, "INCLINATION": 98.9162, "RA_OF_ASC_NODE": 48.597, "ARG_OF_PERICENTER": 80.1101, "MEAN_ANOMALY": 344.7492, "EPHEMERIS_TYPE": 0, "CLASSIFICATION_TYPE": "U", "NORAD_CAT_ID": 30816, "ELEMENT_SET_NO": 999, "REV_AT_EPOCH": 96272, "BSTAR": 0.003383979, "MEAN_MOTION_DOT": 6.978e-05, "MEAN_MOTION_DDOT": 0}, "tle": {"line1": "1 30816U 99025AVA 25338.15093470  .00006978  00000+0  33840-2 0  9992", "line2": "2 30816  98.9162  48.5970 0053058  80.1101 344.7492 14.17922136962725"}}, "geometry": {"type": "Point", "coordinates": [76.28243862713354, -70.88462916576006]}}, {"type": "Feature", "properties": {"norad_id": 30817, "name": "FENGYUN 1C DEB", "group": "fengyun-1c-debris", "lat": 42.18315361888137, "lon": 157.46946546332393, "alt_km": 914.5428412120164, "timestamp": "2025-12-04T21:36:16.151761+00:00", "meta": {"OBJECT_NAME": "FENGYUN 1C DEB", "OBJECT_ID": "1999-025AVB", "EPOCH": "2025-12-03T10:39:33.340032", "MEAN_MOTION": 14.00708437, "ECCENTRICITY": 0.0057357, "INCLINATION": 98.7858, "RA_OF_ASC_NODE": 328.0132, "ARG_OF_PERICENTER": 271.2432, "MEAN_ANOMALY": 88.2163, "EPHEMERIS_TYPE": 0, "CLASSIFICATION_TYPE": "U", "NORAD_CAT_ID": 30817, "ELEMENT_SET_NO": 999, "REV_AT_EPOCH": 95779, "BSTAR": 0.00039231117, "MEAN_MOTION_DOT": 5.5e-06, "MEAN_MOTION_DDOT": 0}, "tle": {"line1": "1 30817U 99025AVB 25337.44413588  .00000550  00000+0  39231-3 0  9991", "line2": "2 30817  98.7858 328.0132 0057357 271.2432  88.2163 14.00708437957792"}}, "geometry": {"type": "Point", "coordinates": [157.46946546332393, 42.18315361888137]}}, {"type": "Feature", "properties": {"norad_id": 30820, "name": "FENGYUN 1C DEB", "group": "fengyun-1c-debris", "lat": 39.291982660494845, "lon": -97.4855932971574, "alt_km": 804.4740116177809, "timestamp": "2025-12-04T21:36:16.151772+00:00", "meta": {"OBJECT_NAME": "FENGYUN 1C DEB", "OBJECT_ID": "1999-025AVE", "EPOCH": "2025-12-04T12:35:32.067744", "MEAN_MOTION": 14.2129273, "ECCENTRICITY": 0.00519585, "INCLINATION": 98.6775, "RA_OF_ASC_NODE": 74.9669, "ARG_OF_PERICENTER": 210.3836, "MEAN_ANOMALY": 169.9741, "EPHEMERIS_TYPE": 0, "CLASSIFICATION_TYPE": "U", "NORAD_CAT_ID": 30820, "ELEMENT_SET_NO": 999, "REV_AT_EPOCH": 96307, "BSTAR": 0.0044849127, "MEAN_MOTION_DOT": 9.88e-05, "MEAN_MOTION_DDOT": 0}, "tle": {"line1": "1 30820U 99025AVE 25338.52467671  .00009880  00000+0  44849-2 0  9992", "line2": "2 30820  98.6775  74.9669 0051958 210.3836 169.9741 14.21292730963072"}}, "geometry": {"type": "Point", "coordinates": [-97.4855932971574, 39.291982660494845]}}, {"type": "Feature", "properties": {"norad_id": 30821, "name": "FENGYUN 1C DEB", "group": "fengyun-1c-debris", "lat": 65.18866422011186, "lon": -38.858363729992824, "alt_km": 747.4871262090492, "timestamp": "2025-12-04T21:36:16.151782+00:00", "meta": {"OBJECT_NAME": "FENGYUN 1C DEB", "OBJECT_ID": "1999-025AVF", "EPOCH": "2025-12-01T08:43:29.259840", "MEAN_MOTION": 14.49523426, "ECCENTRICITY": 0.00862987, "INCLINATION": 99.1021, "RA_OF_ASC_NODE": 117.0363, "ARG_OF_PERICENTER": 240.0336, "MEAN_ANOMALY": 149.0962, "EPHEMERIS_TYPE": 0, "CLASSIFICATION_TYPE": "U", "NORAD_CAT_ID": 30821, "ELEMENT_SET_NO": 999, "REV_AT_EPOCH": 98624, "BSTAR": 0.0010654422, "MEAN_MOTION_DOT": 4.23e-05, "MEAN_MOTION_DDOT": 0}, "tle": {"line1": "1 30821U 99025AVF 25335.36353310  .00004230  00000+0  10654-2 0  9997", "line2": "2 30821  99.1021 117.0363 0086298 240.0336 149.0962 14.49523426986240"}}, "geometry": {"type": "Point", "coordinates": [-38.858363729992824, 65.18866422011186]}}, {"type": "Feature", "properties": {"norad_id": 30822, "name": "FENGYUN 1C DEB", "group": "fengyun-1c-debris", "lat": 28.480311542120422, "lon": 2.3892754698205025, "alt_km": 844.8683280870955, "timestamp": "2025-12-04T21:36:16.151792+00:00", "meta": {"OBJECT_NAME": "FENGYUN 1C DEB", "OBJECT_ID": "1999-025AVG", "EPOCH": "2025-12-04T13:41:27.523680", "MEAN_MOTION": 14.11325676, "ECCENTRICITY": 0.00732728, "INCLINATION": 98.7363, "RA_OF_ASC_NODE": 6.8536, "ARG_OF_PERICENTER": 308.8142, "MEAN_ANOMALY": 204.9558, "EPHEMERIS_TYPE": 0, "CLASSIFICATION_TYPE": "U", "NORAD_CAT_ID": 30822, "ELEMENT_SET_NO": 999, "REV_AT_EPOCH": 96586, "BSTAR": 0.00056239028, "MEAN_MOTION_DOT": 9.99e-06, "MEAN_MOTION_DDOT": 0}, "tle": {"line1": "1 30822U 99025AVG 25338.57045745  .00000999  00000+0  56239-3 0  9992", "line2": "2 30822  98.7363   6.8536 0073272 308.8142 204.9558 14.11325676965861"}}, "geometry": {"type": "Point", "coordinates": [2.3892754698205025, 28.480311542120422]}}, {"type": "Feature", "properties": {"norad_id": 30823, "name": "FENGYUN 1C DEB", "group": "fengyun-1c-debris", "lat": 9.627402462342216, "lon": 118.70585134268956, "alt_km": 896.4344028681207, "timestamp": "2025-12-04T21:36:16.151802+00:00", "meta": {"OBJECT_NAME": "FENGYUN 1C DEB", "OBJECT_ID": "1999-025AVH", "EPOCH": "2025-12-02T22:13:04.439712", "MEAN_MOTION": 14.02530933, "ECCENTRICITY": 0.01341286, "INCLINATION": 98.7611, "RA_OF_ASC_NODE": 118.3054, "ARG_OF_PERICENTER": 111.9391, "MEAN_ANOMALY": 15.7733, "EPHEMERIS_TYPE": 0, "CLASSIFICATION_TYPE": "U", "NORAD_CAT_ID": 30823, "ELEMENT_SET_NO": 999, "REV_AT_EPOCH": 95896, "BSTAR": 0.00074109072, "MEAN_MOTION_DOT": 1.194e-05, "MEAN_MOTION_DDOT": 0}, "tle": {"line1": "1 30823U 99025AVH 25336.92574583  .00001194  00000+0  74109-3 0  9991", "line2": "2 30823  98.7611 118.3054 0134128 111.9391  15.7733 14.02530933958969"}}, "geometry": {"type": "Point", "coordinates": [118.70585134268956, 9.627402462342216]}}, {"type": "Feature", "properties": {"norad_id": 30826, "name": "FENGYUN 1C DEB", "group": "fengyun-1c-debris", "lat": 50.25347710890666, "lon": 162.24374350840952, "alt_km": 528.7008501592554, "timestamp": "2025-12-04T21:36:16.151813+00:00", "meta": {"OBJECT_NAME": "FENGYUN 1C DEB", "OBJECT_ID": "1999-025AVL", "EPOCH": "2025-12-03T07:17:45.376224", "MEAN_MOTION": 14.8209274, "ECCENTRICITY": 0.0146116, "INCLINATION": 98.8673, "RA_OF_ASC_NODE": 171.2968, "ARG_OF_PERICENTER": 26.6766, "MEAN_ANOMALY": 152.1532, "EPHEMERIS_TYPE": 0, "CLASSIFICATION_TYPE": "U", "NORAD_CAT_ID": 30826, "ELEMENT_SET_NO": 999, "REV_AT_EPOCH": 146, "BSTAR": 0.00061573, "MEAN_MOTION_DOT": 5.826e-05, "MEAN_MOTION_DDOT": 0}, "tle": {"line1": "1 30826U 99025AVL 25337.30399741  .00005826  00000+0  61573-3 0  9995", "line2": "2 30826  98.8673 171.2968 0146116  26.6766 152.1532 14.82092740  1465"}}, "geometry": {"type": "Point", "coordinates": [162.24374350840952, 50.25347710890666]}}]}